2026-027G               
1 67752U 26027G   26063.22449259  .00016447  00000+0  80953-3 0  9997
2 67752  97.4907 192.3130 0009405 225.8320 134.2142 15.18028016  3039
JIELONG-3 R/B           
1 67753U 26027H   26063.48328448  .00471509  23774-5  70812-3 0  9998
2 67753  97.5133 194.0934 0230530 263.9826  93.5124 15.70660495  3164
JIELONG-3 DEB           
1 67754U 26027J   26063.48634590  .01890588  24457-5  13745-2 0  9990
2 67754  97.5056 194.3938 0154759 263.3467  95.0174 15.95074113  3120
2026-028A               
1 67756U 26028A   26063.32217051 -.00000020  00000+0  00000+0 0  9998
2 67756   0.4831 289.5981 0042000 229.2836 201.2585  0.99524034   200
JAM-E JAM 1             
1 67757U 26028B   26062.45557171  .00000140  00000+0  00000+0 0  9994
2 67757   0.5072 285.5539 0002449 116.0725 318.3556  1.00266787    60
KUIPER-00159            
1 67764U 26030A   26063.49108960  .00034185  00000+0  98235-3 0  9995
2 67764  51.8842 244.2318 0004468  31.3223 328.8028 15.35495952  4294
KUIPER-00160            
1 67765U 26030B   26063.49219392  .00041904  00000+0  12062-2 0  9998
2 67765  51.8809 244.2319 0004746  42.1444 317.9906 15.35345775  4294
KUIPER-00177            
1 67766U 26030C   26063.48055747  .00047042  00000+0  13120-2 0  9995
2 67766  51.8828 244.1618 0001077   8.2848 351.8156 15.36288882  4292
KUIPER-00178            
1 67767U 26030D   26063.49387923  .00051815  00000+0  14890-2 0  9999
2 67767  51.8830 244.2493 0006223  31.1459 328.9895 15.35295266  4297
KUIPER-00180            
1 67768U 26030E   26063.52252861  .00065771  00000+0  20773-2 0  9999
2 67768  51.8795 244.4256 0014618  52.7518 307.4797 15.32113555  4299
KUIPER-00197            
1 67769U 26030F   26063.48262820  .00054465  00000+0  15219-2 0  9998
2 67769  51.8830 244.1766 0001418  48.3821 311.7287 15.36163588  4292
KUIPER-00198            
1 67770U 26030G   26063.48727747  .00033346  00000+0  94961-3 0  9991
2 67770  51.8808 244.2004 0003013  34.1858 325.9321 15.35796409  4290
KUIPER-00199            
1 67771U 26030H   26063.50805205  .00060687  00000+0  18027-2 0  9997
2 67771  51.8802 244.3326 0010142  46.7813 313.4018 15.34151599  4293
KUIPER-00200            
1 67772U 26030J   26063.47469882  .00036128  00000+0  99506-3 0  9996
2 67772  51.8805 244.1209 0001376 213.3954 146.6946 15.36800201  4291
KUIPER-00203            
1 67773U 26030K   26063.41668981  .00085061  00000+0  33992-2 0  9998
2 67773  51.8812 244.9540 0011747  46.7559  60.7953 15.24321602  2841
KUIPER-00205            
1 67774U 26030L   26063.48336648  .00033868  00000+0  95371-3 0  9996
2 67774  51.8808 244.1755 0002691   6.2345 353.8674 15.36139800  4296
KUIPER-00208            
1 67775U 26030M   26063.51998060  .00055923  00000+0  17412-2 0  9998
2 67775  51.8820 244.4175 0014599  45.3118 314.9054 15.32643438  4295
